{"type":"FeatureCollection","features":[{"type":"Feature","id":"w5154629","geometry":{"type":"LineString","coordinates":[[45.5000172,2.1182965],[45.500299,2.1183765],[45.5003983,2.1183443],[45.5004546,2.118205],[45.5005761,2.1182633],[45.5008301,2.1182559],[45.5008408,2.1186204],[45.5011842,2.1188214],[45.5013263,2.1188027],[45.5014309,2.1188616],[45.501624,2.1186955],[45.5017072,2.1187464],[45.501675,2.1188161],[45.5017528,2.1189072],[45.5018708,2.1189019],[45.5020559,2.1191431],[45.5022275,2.1192476],[45.5021739,2.1194084],[45.5017769,2.1196416],[45.5019325,2.1199767],[45.5021363,2.1202796],[45.5024099,2.1205556],[45.5026567,2.1206816],[45.5032924,2.1213544],[45.5037814,2.1217426],[45.5040377,2.1220004],[45.5046415,2.1224239],[45.5050331,2.1226276],[45.5059344,2.1230993],[45.5075866,2.1243645],[45.5083954,2.124835],[45.5099335,2.1258658],[45.5102259,2.126096],[45.5124969,2.127412],[45.5137787,2.1281852],[45.5142913,2.1284428],[45.5150603,2.1289582],[45.5155731,2.1292158],[45.5160856,2.1294735],[45.5166793,2.1297895],[45.51788,2.1302465],[45.5183315,2.1304221],[45.5189053,2.1307617],[45.5194179,2.1310195],[45.5196994,2.1313066],[45.5202681,2.1315639],[45.5217252,2.1328235],[45.5219815,2.1330813],[45.5225426,2.1333973],[45.5237759,2.1343697],[45.5241305,2.1345552],[45.5245449,2.1348851],[45.5248014,2.1351429],[45.5260402,2.135831],[45.5276012,2.1370425],[45.5301847,2.1387507],[45.530441,2.1390085],[45.5309537,2.1392661],[45.53121,2.1395239],[45.5324918,2.1402969],[45.5337703,2.1410309],[45.5341136,2.1411488],[45.5344462,2.1413632],[45.5347989,2.1415853],[45.5352938,2.14191],[45.5358242,2.1423585],[45.5365933,2.1428737],[45.5376112,2.1434432],[45.5386441,2.1441623],[45.5398106,2.1451157],[45.5407226,2.1458126],[45.541656,2.1461664],[45.5424821,2.1464559],[45.5435147,2.1469968],[45.5437709,2.1472544],[45.54454,2.147512],[45.545336,2.1483214],[45.546366,2.148761],[45.548383,2.1503799],[45.5494988,2.1513984],[45.5495739,2.151913],[45.5499236,2.152151],[45.5510545,2.1527385],[45.5517178,2.152666],[45.5524492,2.1531031],[45.5528676,2.1532424],[45.5531359,2.1530495],[45.553512,2.153181],[45.5545735,2.1539822],[45.5557001,2.1547113],[45.5561399,2.1551508],[45.55646,2.1561455],[45.5571015,2.1570472],[45.5577707,2.1576918],[45.558908,2.1582171],[45.5597985,2.1583243],[45.5606902,2.1588507],[45.561203,2.1593663],[45.5632536,2.1601389],[45.5644655,2.1604364],[45.5660731,2.1609113],[45.5663296,2.1611691],[45.5665859,2.1614269],[45.5670986,2.1616845],[45.5676112,2.1619421],[45.5679041,2.1622215],[45.568403,2.1623876],[45.5688926,2.1618132],[45.569036,2.1620338],[45.5693901,2.1621035],[45.5690467,2.1622322],[45.5690843,2.162854],[45.5696475,2.1636688],[45.57123,2.1649929],[45.5716109,2.1655665],[45.5727386,2.1660656],[45.5742765,2.1663228],[45.574789,2.1665804],[45.5758146,2.1670956],[45.5761278,2.1673408],[45.5763316,2.167373],[45.5765836,2.167611],[45.5780375,2.1686167],[45.5793571,2.1694422],[45.5811977,2.1699298],[45.582223,2.1701873],[45.5827474,2.170257],[45.583477,2.1706108],[45.5844748,2.172219],[45.5856389,2.1729587],[45.5871409,2.1740791],[45.5883757,2.1748257],[45.5891447,2.1750833],[45.589748,2.1752584],[45.5904263,2.1753405],[45.5909389,2.1755983],[45.5917811,2.1759713],[45.5927335,2.176629],[45.5929559,2.1768049],[45.5933019,2.1768585],[45.594238,2.1773383],[45.5950266,2.1779655],[45.5958098,2.1788197],[45.5963892,2.1796112],[45.5971992,2.1802115],[45.598079,2.18056],[45.5985242,2.1807369],[45.5991426,2.1812672],[45.5999115,2.1815248],[45.6004243,2.1817824],[45.6017107,2.1821467],[45.6028882,2.1822914],[45.6034005,2.1825032],[45.6040388,2.1829052],[45.604822,2.1834815],[45.6058198,2.1842212],[45.6068337,2.1850628],[45.6070858,2.1855613],[45.6076008,2.186017],[45.6084967,2.186687],[45.6093496,2.1870301],[45.6105566,2.1874268],[45.611191,2.1879659],[45.6124771,2.1886275],[45.6132871,2.1893191],[45.613845,2.1895871],[45.6151646,2.1899141],[45.6159532,2.1902839],[45.6168061,2.1908682],[45.6177986,2.191281],[45.6186998,2.1919082],[45.6193328,2.1923102],[45.6202394,2.1929535],[45.6220686,2.1944169],[45.6234795,2.1953067],[45.62437,2.1958213],[45.6249654,2.1962448],[45.6254911,2.1967594],[45.6260651,2.1971507],[45.626623,2.1974134],[45.627197,2.1977136],[45.627712,2.1980566],[45.6281626,2.1982657],[45.6293374,2.199118],[45.6305605,2.1997345],[45.6315637,2.2003938],[45.6322557,2.2003992],[45.6325829,2.2004849],[45.6330496,2.200694],[45.6336397,2.2009138],[45.6347287,2.2026291],[45.6354207,2.2031062],[45.6368101,2.2038031],[45.6373465,2.2040872],[45.6383872,2.2045642],[45.6389987,2.2048108],[45.6393689,2.2047411],[45.639444,2.2045428],[45.6395835,2.2045428],[45.6402111,2.2048055],[45.6406718,2.2049703],[45.6410962,2.2051378],[45.641858,2.2051968],[45.6425554,2.2051324],[45.6433117,2.2048859],[45.6438321,2.2045267],[45.6439394,2.2043981],[45.6436551,2.2039371],[45.6434619,2.2037816],[45.643183,2.2033903],[45.6433573,2.2032643],[45.6436926,2.2033072],[45.6438643,2.2033903],[45.6439421,2.2034975],[45.644162,2.2035913],[45.64428,2.2037923],[45.6445,2.2038915],[45.644559,2.2040068],[45.6448218,2.2041729],[45.6449479,2.2041542],[45.6452215,2.2045964],[45.6452483,2.2047251],[45.6455299,2.2048403],[45.6458679,2.2050574],[45.6460878,2.2053174],[45.6460181,2.2055023],[45.6458974,2.2054943],[45.645715,2.2053629],[45.6455836,2.2053683],[45.6453368,2.205379],[45.6452349,2.2054809],[45.6452295,2.2055881],[45.6453234,2.2055827],[45.6453207,2.2056926],[45.6452081,2.2057355],[45.6451088,2.2058079],[45.6451464,2.2061214],[45.6453207,2.2064672],[45.645723,2.2068987],[45.6459376,2.2072552],[45.6466806,2.2082737],[45.6472385,2.20874],[45.647465,2.2089642],[45.6481665,2.2094422],[45.6487673,2.209796],[45.6499011,2.2106386],[45.6504136,2.2108962],[45.6512725,2.2114953],[45.6517017,2.2118062],[45.6522757,2.2121546],[45.6527209,2.212442],[45.6532337,2.2126996],[45.6540513,2.2128193],[45.6546897,2.2130552],[45.6549257,2.2128408],[45.6549901,2.2126371],[45.6552842,2.2126987],[45.6557967,2.2129563],[45.6563095,2.2132139],[45.6568222,2.2134715],[45.6573397,2.2136609],[45.6578476,2.2137289],[45.6582624,2.214004],[45.6586166,2.2142441],[45.6588731,2.2145019],[45.659818,2.2149849],[45.6601549,2.2152749],[45.660671,2.2155317],[45.6612235,2.215655],[45.6616527,2.2156442],[45.6619424,2.2155156],[45.6618994,2.2153119],[45.6620765,2.2151564],[45.6622374,2.2151725],[45.662275,2.2155424],[45.6627181,2.2157894],[45.6629744,2.2157892],[45.6637394,2.2160624],[45.6653649,2.2169951],[45.6657943,2.2173348],[45.6666738,2.2176705],[45.667634,2.2182655],[45.6686139,2.2182365],[45.6688839,2.2180591],[45.6689966,2.2182387],[45.6688839,2.218362],[45.6688169,2.218571],[45.6687766,2.2186595],[45.6690341,2.2190293],[45.6692219,2.2190749],[45.6694069,2.2192518],[45.6697503,2.2194126],[45.6699219,2.2193858],[45.6699407,2.2194501],[45.6698763,2.2195359],[45.6696779,2.2195734],[45.669651,2.2197637],[45.6697717,2.2200585],[45.6698963,2.2201691],[45.6702304,2.2204418],[45.6704091,2.2206845],[45.6706998,2.2209135],[45.671035,2.2211547],[45.6715152,2.2214067],[45.6719604,2.2216452],[45.6724405,2.2220204],[45.6729662,2.2222295],[45.67339,2.2225109],[45.6738245,2.2228057],[45.6739984,2.2231328],[45.6739211,2.223197],[45.6746077,2.2241458],[45.6750101,2.2243924],[45.6754821,2.2251107],[45.6756806,2.2256414],[45.67605,2.2258385],[45.676819,2.2263537],[45.6775882,2.2268691],[45.6781008,2.2271267],[45.679484,2.2274746],[45.6801514,2.2273836],[45.6804077,2.2273834],[45.6809203,2.227641],[45.6814367,2.2278016],[45.6819195,2.2280107],[45.6821501,2.2280107],[45.6823057,2.2278981],[45.6823969,2.2279678],[45.6824827,2.2281286],[45.6826383,2.2281929],[45.682928,2.2281393],[45.683164,2.2282626],[45.6833732,2.2282304],[45.6836951,2.2284877],[45.6838828,2.2284234],[45.684092,2.2287665],[45.6842527,2.2289287],[45.6849396,2.2291471],[45.6853098,2.2293239],[45.6853849,2.2294955],[45.6860608,2.2297903],[45.6863036,2.2299589],[45.6867367,2.2303102],[45.6872892,2.2307284],[45.6880295,2.2311572],[45.6887387,2.2313764],[45.6895316,2.2319827],[45.6898927,2.2320199],[45.690347,2.2323311],[45.6904167,2.2326098]]},"properties":{"natural":"coastline"}},{"type":"Feature","id":"w126975957","geometry":{"type":"LineString","coordinates":[[45.2332664,1.9740665],[45.2335922,1.974482],[45.2338725,1.9747729],[45.2343553,1.9752755],[45.2348019,1.9757687],[45.2350956,1.9760797],[45.2355087,1.9764818],[45.2358359,1.976849],[45.2359311,1.9769415],[45.236029,1.9770139],[45.2364019,1.9772457],[45.2371261,1.9776411],[45.2379307,1.9780258],[45.2387837,1.978393],[45.2403474,1.9789962],[45.2415007,1.9794144],[45.2422518,1.9796556],[45.2424207,1.9797092],[45.2425763,1.9797226],[45.2427024,1.9797012],[45.2429545,1.9795993],[45.2432281,1.9794948],[45.2435338,1.9794492],[45.2438101,1.9794706],[45.2439684,1.9795377],[45.2440287,1.9795926],[45.2440441,1.9796838],[45.2440381,1.9798097],[45.2440676,1.9798835],[45.2441803,1.9799692],[45.2446859,1.9802534],[45.2449487,1.980374],[45.2451834,1.9804544],[45.2454422,1.9804906],[45.2456045,1.9805107],[45.2457587,1.9805697],[45.2458982,1.980634],[45.2460323,1.9806635],[45.2461624,1.9806649],[45.2462925,1.9806521],[45.2463582,1.9806458],[45.2464041,1.9806451],[45.2464511,1.9806551],[45.2465,1.9806789],[45.2465795,1.9807406],[45.2467136,1.9808565],[45.2467924,1.9809433],[45.2468226,1.9809993],[45.246842,1.9810361],[45.2468725,1.9810623],[45.2469171,1.9810733],[45.2469634,1.981075],[45.2470318,1.9810767],[45.2470921,1.9810897],[45.247176,1.9811242],[45.2472628,1.9811695],[45.2476041,1.9813243],[45.2480453,1.9815066],[45.2483886,1.9816433],[45.2484993,1.9816982],[45.2486026,1.981725],[45.2486743,1.9817257],[45.2487836,1.9817076],[45.2489385,1.9817043],[45.2491088,1.9817237],[45.2493435,1.9817813],[45.2495239,1.9818423],[45.2496164,1.9818953],[45.249723,1.9820025],[45.2497955,1.9820521],[45.2499209,1.982097],[45.2499927,1.9821193]]},"properties":{"natural":"coastline","source":"Bing"}},{"type":"Feature","id":"w188767027","geometry":{"type":"LineString","coordinates":[[45.2812878,2.0007606],[45.2815239,2.000812],[45.2818158,2.0008508],[45.282332,2.001296],[45.2825063,2.0013148],[45.282561,2.0012659],[45.282732,2.0013254],[45.2830075,2.0016224],[45.2833503,2.0019024],[45.2836066,2.0021602],[45.2839568,2.0023765],[45.2842163,2.0026095],[45.2843754,2.0026758],[45.2846706,2.0028626],[45.2847782,2.0029821],[45.2848117,2.0031094],[45.2847634,2.0032153],[45.2850652,2.0033775],[45.2852824,2.0034338],[45.2853964,2.0034485],[45.2855131,2.0035839],[45.2857183,2.0036589],[45.2858309,2.0036697],[45.2858846,2.0036093],[45.2859062,2.0036042],[45.286124,2.0037264],[45.2869062,2.0036305],[45.2869588,2.0035893],[45.287074,2.0032818],[45.2870339,2.003218],[45.2870417,2.003039],[45.2870867,2.0029746],[45.2873021,2.0028615],[45.2875473,2.0027921],[45.2878425,2.0028751],[45.2878734,2.0029526],[45.2880936,2.0031935],[45.2884456,2.0032906],[45.2886271,2.0033467],[45.2889812,2.0033949],[45.2890964,2.0035148],[45.2893352,2.0036388],[45.2896181,2.003658],[45.2899201,2.0035395],[45.2901801,2.0036549],[45.2904806,2.0036978],[45.2907112,2.0037353],[45.2908722,2.0038854],[45.2910783,2.0040101],[45.2916424,2.0041231],[45.291819,2.0041481],[45.2919558,2.0041026],[45.2920094,2.003998],[45.2919853,2.0039471],[45.2919945,2.0038925],[45.292117,2.0038248],[45.2923177,2.0039121],[45.2925065,2.0039415],[45.2929723,2.0038881],[45.2934869,2.0037318],[45.293608,2.0036576],[45.293635,2.0035165],[45.2934605,2.0034083],[45.2934417,2.0032636],[45.2932943,2.0030828],[45.2933382,2.0029428],[45.2933929,2.0028712],[45.2935529,2.0028213],[45.2938938,2.0028188],[45.2941065,2.0029057],[45.2942852,2.0029261],[45.2944697,2.003043],[45.2945575,2.0031912],[45.2945471,2.0033378],[45.2945422,2.0035158],[45.2944756,2.0036231],[45.2943518,2.0037366],[45.2942625,2.003872],[45.2943027,2.0040329],[45.294638,2.004703],[45.2949503,2.004881],[45.295941,2.0055356],[45.2962004,2.0057766],[45.2964891,2.005944],[45.2966616,2.0060284],[45.2969849,2.0061639],[45.2971673,2.006172],[45.2974028,2.0061295],[45.2975963,2.0061125],[45.297727,2.0060138],[45.2977989,2.0060131],[45.2980087,2.0060705],[45.2981007,2.0060647],[45.2981722,2.006151],[45.2981153,2.0061906],[45.2980497,2.0063248],[45.2980045,2.0064936],[45.2980578,2.0067429],[45.2982172,2.0070538],[45.2986683,2.007516],[45.2988192,2.0077272],[45.2990368,2.0078473],[45.2991442,2.0079512],[45.2992997,2.0079787],[45.2994974,2.0078971],[45.299651,2.0079063],[45.2998475,2.0079556],[45.2998927,2.0080494],[45.2998912,2.0082687],[45.2999323,2.0083675],[45.3001865,2.008608],[45.3004128,2.0086166],[45.3007931,2.0086063],[45.3010029,2.0086488],[45.3011385,2.0086996],[45.3012791,2.0087507],[45.301363,2.0088338],[45.3014508,2.0088204],[45.3015111,2.0087626],[45.3016554,2.0088672],[45.3017893,2.0088468],[45.3019121,2.0088767],[45.3019627,2.008956],[45.3021697,2.0090115],[45.3021701,2.0091263],[45.3021508,2.0092412],[45.3020891,2.0093525],[45.3019109,2.0094519],[45.3019175,2.0097693],[45.30196,2.0100078],[45.3019872,2.0101178],[45.3022571,2.0103986],[45.3023934,2.0104705],[45.3024739,2.0106592],[45.3028907,2.0112049],[45.3031915,2.0113535],[45.3034706,2.0114505],[45.3040172,2.0116252],[45.3045982,2.0117882],[45.3051324,2.0118707],[45.3056195,2.0118521],[45.3061793,2.011651],[45.3065192,2.0113803],[45.306615,2.0111089],[45.3064477,2.011005],[45.3063248,2.0108802],[45.3060969,2.0106578],[45.3060085,2.0105271],[45.30598,2.010352],[45.3060249,2.0102008],[45.3060906,2.0101381],[45.3062814,2.0101848],[45.3064231,2.0102839],[45.3064295,2.0103961],[45.306529,2.0105819],[45.3068432,2.0107703],[45.3071574,2.0108855],[45.30738,2.0110503],[45.3075341,2.0112141],[45.3075999,2.0113382],[45.3077021,2.011401],[45.307939,2.0114929],[45.3082416,2.0115182],[45.3084326,2.0114523],[45.3085959,2.011488],[45.3087923,2.0116601],[45.3089181,2.0118494],[45.3090675,2.0118377],[45.3092679,2.0117953],[45.3094663,2.0118515],[45.3097767,2.0123012],[45.3099269,2.0124348],[45.3102472,2.0126675],[45.3106452,2.0128795],[45.3110111,2.012998],[45.3112103,2.0131812],[45.3115043,2.0132943],[45.3116217,2.0132808],[45.3117325,2.0132364],[45.3118942,2.013238],[45.3121453,2.0134506],[45.3124101,2.0136648],[45.3126887,2.0138507],[45.3129088,2.0141065],[45.3131211,2.0143718],[45.3133685,2.0146236],[45.3133777,2.014682],[45.3134,2.0147846],[45.3135261,2.0148034],[45.3136336,2.0147974],[45.3137809,2.0149133],[45.3139365,2.0149803],[45.3141537,2.0149562],[45.3141645,2.0148838],[45.3141428,2.0148283],[45.3141108,2.0147632],[45.3142184,2.0146673],[45.314374,2.0144862],[45.3146253,2.0143551],[45.3147572,2.0143584],[45.314947,2.014406],[45.3153434,2.0146079],[45.3155809,2.0146419],[45.315688,2.0147361],[45.3157684,2.0149535],[45.3158941,2.0150796],[45.3160327,2.0152615],[45.3163965,2.015499],[45.3164634,2.0156424],[45.3165992,2.0157335],[45.3167192,2.0157496],[45.3167528,2.0158525],[45.317116,2.0160134],[45.3173366,2.01604],[45.3175562,2.0159874],[45.3178517,2.0160928],[45.3179343,2.0162189],[45.3180885,2.0162348],[45.3183289,2.016303],[45.3185486,2.0163671],[45.3187239,2.0165627],[45.3186437,2.0167709],[45.3186937,2.0168933],[45.3187698,2.0168459],[45.3188341,2.0168627],[45.3188691,2.0170068],[45.3188682,2.0170899],[45.3192204,2.0172722],[45.3192633,2.01724],[45.3194377,2.0172534],[45.3194967,2.0173097],[45.3194935,2.0173927],[45.319634,2.0174358],[45.3197564,2.0173391],[45.3197834,2.0172906],[45.3202225,2.0174312],[45.3205795,2.017719],[45.3205922,2.01778],[45.3206126,2.0178585],[45.32074,2.0179411],[45.320929,2.0181165],[45.3210255,2.0181541],[45.321039,2.0182157],[45.3211248,2.018264],[45.3211355,2.018398],[45.3213142,2.0184669],[45.3215779,2.0185534],[45.3217337,2.0185401],[45.3218155,2.0184604],[45.321877,2.0184032],[45.3220139,2.0184244],[45.3220716,2.0185293],[45.3222689,2.0185459],[45.3223513,2.0184785],[45.3225812,2.0185304],[45.3226676,2.018724],[45.3227475,2.0189073],[45.3229648,2.0188966],[45.3230439,2.0187741],[45.3235208,2.0188315],[45.3236714,2.0189282],[45.3236783,2.0190252],[45.3237122,2.0190971],[45.3238336,2.0191866],[45.3239249,2.0191914],[45.3239841,2.0191369],[45.3241101,2.019229],[45.3242675,2.019264],[45.3242969,2.0193263],[45.3243707,2.0193618],[45.3244449,2.0194382],[45.3245135,2.019501],[45.3246173,2.0195185],[45.3246513,2.0194816],[45.324735,2.0195037],[45.324902,2.0195547],[45.32493,2.0195921],[45.3250171,2.0196227],[45.3250853,2.019577],[45.3251702,2.0195941],[45.3254394,2.0196466],[45.3256017,2.019643],[45.3256362,2.0197154],[45.3257476,2.0199621],[45.3258722,2.0200377],[45.3260158,2.020076],[45.3263517,2.0200937],[45.3265496,2.0201084],[45.3266743,2.0202143],[45.3268176,2.020367],[45.3268553,2.0204499],[45.32709,2.0205129],[45.3272116,2.0205205],[45.3273046,2.0205022],[45.3273619,2.0204829],[45.3274186,2.0205089],[45.3274558,2.0205715],[45.3274723,2.0206351],[45.327554,2.0206684],[45.3276426,2.0206175],[45.3277124,2.0206288],[45.3282313,2.020738],[45.3283252,2.0207944],[45.3284269,2.0207641],[45.3286991,2.0206501],[45.3289394,2.020588],[45.3290132,2.020588],[45.3291404,2.0205212],[45.3293163,2.0205652],[45.329573,2.0206443],[45.3299003,2.0207994],[45.3308196,2.0214258]]},"properties":{"natural":"coastline","source":"Bing"}},{"type":"Feature","id":"w188767028","geometry":{"type":"LineString","coordinates":[[45.3436121,2.0319595],[45.3436419,2.0318781],[45.3436467,2.031882],[45.3436517,2.031879],[45.3436633,2.0318877],[45.343671,2.0318896],[45.3436772,2.0319027],[45.3436627,2.031925],[45.343666,2.0319458],[45.3436817,2.031955],[45.3436879,2.0319488],[45.3436986,2.0319556],[45.3437109,2.0319554],[45.3437138,2.0319519],[45.3437289,2.0319495],[45.343743,2.0319632],[45.3437526,2.0319676],[45.3437681,2.0319732],[45.343786,2.0319765],[45.3437992,2.0319882],[45.3437985,2.0319949],[45.3438017,2.0320067],[45.3438344,2.0320476],[45.343873,2.0320743],[45.3441243,2.0321663],[45.3440906,2.0322656],[45.3439773,2.0323689],[45.3438806,2.0325498],[45.3439398,2.0327757],[45.3440622,2.0327886],[45.3441161,2.0328122],[45.3441343,2.0328774],[45.3440958,2.032926],[45.3440978,2.0329586],[45.3440167,2.033063],[45.3439686,2.0330989],[45.3438709,2.0332276],[45.3438117,2.0334213],[45.3438132,2.0335841],[45.3438317,2.0336953],[45.3438726,2.0338271],[45.3439549,2.0339373],[45.3442305,2.034234],[45.3447406,2.0346557],[45.3458285,2.0349586],[45.3499278,2.0356426],[45.3500651,2.0356662],[45.3512494,2.0356912],[45.3517176,2.0357671],[45.3521105,2.0357354]]},"properties":{"natural":"coastline","source":"Bing"}},{"type":"Feature","id":"w188767032","geometry":{"type":"LineString","coordinates":[[45.3879217,2.0525469],[45.3879217,2.0520311],[45.3881778,2.0519018],[45.3886904,2.0519016],[45.3889467,2.0519016],[45.3897155,2.0516434],[45.3904844,2.0516433],[45.3910802,2.051803],[45.3911247,2.0522881],[45.3909973,2.0530617],[45.3915099,2.05319],[45.3927913,2.0534476],[45.3930476,2.0537054],[45.3933041,2.0539632],[45.3938166,2.0542208],[45.3940729,2.0544786],[45.3948418,2.0547362],[45.3950982,2.054994],[45.3953545,2.0552518],[45.3956108,2.0555096],[45.3958673,2.0557674],[45.3961236,2.0560252],[45.3966361,2.0562828],[45.3974052,2.0565406],[45.3979177,2.0567982],[45.398174,2.0567982],[45.3989429,2.056798],[45.3991992,2.0570558],[45.3994555,2.0573134],[45.3997119,2.0575712],[45.3999682,2.0575712],[45.4002245,2.0575712],[45.4007371,2.0577005],[45.4009759,2.0580556],[45.4007019,2.0582034],[45.4003665,2.0586045],[45.4003396,2.0589089],[45.4005069,2.0593667],[45.4007374,2.0595053],[45.4011047,2.0597025],[45.4012502,2.0600209],[45.4017872,2.0603201],[45.4022144,2.06053],[45.4024805,2.0607543],[45.4026098,2.0609487],[45.4027441,2.061021],[45.4030444,2.0609224],[45.4034325,2.0611519],[45.4036032,2.0610589],[45.404614,2.061088],[45.4047993,2.06131],[45.4048483,2.0616743],[45.4049727,2.0617784],[45.4051373,2.0617475],[45.4053045,2.0618602],[45.4052741,2.0619525],[45.4059858,2.0621727],[45.4061484,2.0620404],[45.4068892,2.0622638],[45.4067434,2.0625461],[45.4069307,2.0627053],[45.4071893,2.0627018],[45.4073049,2.0630116],[45.4075223,2.0628774],[45.4076443,2.0631106],[45.4075845,2.0633192],[45.4076311,2.0635479],[45.4080349,2.0637333]]},"properties":{"natural":"coastline"}},{"type":"Feature","id":"w188767042","geometry":{"type":"LineString","coordinates":[[45.3368696,2.0270277],[45.3369464,2.0273723],[45.3370739,2.0276206],[45.3371213,2.0276173],[45.3371965,2.0276467],[45.3373485,2.0278166],[45.3374799,2.0279041],[45.3376063,2.0279454],[45.3376693,2.0279333],[45.3377216,2.0278496],[45.3378371,2.0278599],[45.3379027,2.0279152],[45.3379597,2.0280446],[45.3380577,2.0280987],[45.3381273,2.0282074],[45.3382574,2.0282865],[45.3383171,2.0283964],[45.3384472,2.0284359],[45.3384941,2.0285304],[45.3385947,2.0285519],[45.3386959,2.0285284],[45.3387328,2.0284641],[45.3387982,2.0284315],[45.3389078,2.0284975],[45.3388839,2.0286281],[45.3389064,2.0287461],[45.3390005,2.0287531],[45.3390652,2.028798],[45.339082,2.0288851],[45.339134,2.0290676],[45.3391973,2.0291056],[45.3392942,2.0290466],[45.339349,2.0290648],[45.339498,2.0290255],[45.3395795,2.0290873],[45.3396835,2.029062],[45.3398212,2.029246],[45.3398338,2.0293232],[45.3398999,2.029364],[45.3399814,2.0293569],[45.3402567,2.0294834],[45.3403466,2.0295789],[45.3404675,2.0296027],[45.3405714,2.0295999],[45.3407035,2.0296659],[45.340772,2.0297366],[45.34052,2.0299927],[45.3404664,2.0303461],[45.3405628,2.0304041],[45.3405699,2.0304344],[45.3407961,2.0305703],[45.3409865,2.0306654],[45.341059,2.0307124],[45.3410751,2.0308303],[45.3412561,2.030837],[45.3413822,2.0309214],[45.3413634,2.0310273],[45.3412306,2.0311211],[45.3412414,2.0312176],[45.3413352,2.0312109],[45.3414157,2.0312873],[45.3416008,2.0312954],[45.3417081,2.0312176],[45.3418516,2.0312042],[45.3422807,2.031164],[45.3424068,2.0310541],[45.3426227,2.0310488],[45.3427099,2.0309442],[45.342793,2.0310394],[45.3427394,2.0312659],[45.343013,2.0313275],[45.3430998,2.0312595],[45.3432041,2.0312042],[45.3432168,2.0311813],[45.3432423,2.0310675],[45.3431658,2.0310407],[45.3431162,2.0309938],[45.3429539,2.030892],[45.3429553,2.0308491],[45.343025,2.030837],[45.3431015,2.0308209],[45.34319,2.0308156],[45.3432651,2.0308598],[45.3432817,2.0309549],[45.3433513,2.0310621],[45.3433201,2.0312002],[45.343422,2.0312391],[45.3435381,2.0311674],[45.3436017,2.0312508],[45.3436325,2.0313624],[45.3437229,2.031364],[45.3436942,2.0314776],[45.3434864,2.0316117],[45.3433938,2.0315956],[45.3433712,2.0315308],[45.3433135,2.0316301],[45.3432664,2.0317417],[45.3432416,2.0318791],[45.343314,2.031926],[45.3433556,2.0319112],[45.3434274,2.0319266],[45.3435273,2.031993],[45.3435611,2.031939],[45.3436121,2.0319595]]},"properties":{"natural":"coastline","source":"Bing"}},{"type":"Feature","id":"w188767043","geometry":{"type":"LineString","coordinates":[[45.4513742,2.0930028],[45.4520054,2.0933833],[45.4528387,2.0940697],[45.4537862,2.0944204],[45.4553352,2.0952006],[45.4561042,2.095716],[45.4566168,2.0959736],[45.4575684,2.0965749],[45.4582862,2.0965706],[45.4587468,2.0969508],[45.4587323,2.0970765],[45.4589166,2.0970925],[45.459202,2.0973575],[45.4594743,2.0977227],[45.4598828,2.0979404],[45.4602993,2.0978874],[45.4604713,2.0980509],[45.4608986,2.0982712],[45.4612307,2.0985506],[45.4615015,2.0987327],[45.462256,2.099066],[45.4627688,2.0993236],[45.463025,2.0995814],[45.4638808,2.1000067],[45.4645882,2.1001615],[45.4659744,2.1010068],[45.4669491,2.1013041],[45.4674183,2.1015366],[45.4676168,2.1018267],[45.4679925,2.1019619],[45.4682813,2.1019509],[45.4686927,2.1021961],[45.4691418,2.1025363],[45.4694702,2.1029131],[45.4698711,2.1032736],[45.4699276,2.10349],[45.4699928,2.1036687],[45.4702456,2.1037785],[45.470549,2.1038705],[45.4712276,2.1043495],[45.4717942,2.104439],[45.4725234,2.1053377],[45.4728536,2.1056361],[45.473792,2.1059243],[45.4744987,2.1061819],[45.475,2.1065394],[45.4757585,2.106891],[45.4765288,2.1069191],[45.4784901,2.1074343],[45.4791734,2.1075695],[45.4796786,2.1076293],[45.4799564,2.107502],[45.4800839,2.1072442],[45.4802442,2.1066346],[45.4804521,2.1063854],[45.4809399,2.1063689],[45.4814798,2.1067953],[45.4819925,2.1073107],[45.4826782,2.1075866],[45.4829903,2.107889],[45.4835306,2.1083416],[45.4839305,2.1087602],[45.4845207,2.1090252],[45.4847724,2.1091436],[45.4850285,2.1088858],[45.4852514,2.1089507]]},"properties":{"natural":"coastline"}},{"type":"Feature","id":"w188767044","geometry":{"type":"LineString","coordinates":[[45.3521105,2.0357354],[45.3532894,2.0355186],[45.3533091,2.0353045],[45.3533475,2.0352212],[45.3535376,2.0348699],[45.3537434,2.0346554],[45.3537708,2.0343855],[45.3538064,2.0343844],[45.3538246,2.0342975],[45.3539209,2.0340576],[45.3541488,2.0328076],[45.3540427,2.0322764],[45.3527355,2.0316307],[45.3515314,2.0310844],[45.3509871,2.0309211],[45.3496837,2.0307525],[45.3494934,2.0307351],[45.3493786,2.0307276],[45.349376,2.0306504],[45.3495834,2.0306567],[45.3497246,2.030627],[45.350826,2.0307668],[45.3510089,2.0307975],[45.3515426,2.030971],[45.3528063,2.0315462],[45.3551283,2.0326626],[45.3553172,2.0327852],[45.3555119,2.0329649],[45.3555414,2.033021],[45.3556473,2.0330587],[45.3557078,2.0331183],[45.3557256,2.0331775],[45.355712,2.0333274],[45.3557553,2.0335613],[45.3557887,2.034132],[45.3558261,2.0343923],[45.3558262,2.0345619],[45.3557481,2.0362424],[45.3559658,2.0363698],[45.3561174,2.0364206],[45.3563326,2.0364406],[45.3566288,2.0364031],[45.3569647,2.0363942],[45.3574902,2.0364728],[45.3581892,2.0366615],[45.358936,2.0369445],[45.3602475,2.0373091],[45.3606874,2.0375075],[45.3612738,2.0380189],[45.3614379,2.038124],[45.3617201,2.0382692],[45.3619766,2.0384734],[45.3622907,2.038758],[45.3625885,2.0390296],[45.3632719,2.0395175],[45.3636485,2.0398502],[45.3640849,2.0403046]]},"properties":{"natural":"coastline"}},{"type":"Feature","id":"w308099485","geometry":{"type":"LineString","coordinates":[[45.2733681,1.9952299],[45.2736725,1.9954403],[45.273753,1.9955086],[45.2738294,1.9955998],[45.2739769,1.9957767],[45.2741861,1.9959617],[45.2743725,1.9960729],[45.2745241,1.9961413],[45.2749184,1.9962512],[45.2751437,1.9963209],[45.2753636,1.9964066],[45.2755755,1.9965568],[45.2757606,1.9967283],[45.2758773,1.9968409],[45.2759148,1.9969039],[45.2759296,1.9969722],[45.2759041,1.997058],[45.2758464,1.9971304],[45.2757673,1.9971827],[45.2756171,1.9972336],[45.2755447,1.9972926],[45.2754977,1.9973596],[45.2754642,1.997436],[45.2754481,1.9975405],[45.2754427,1.9976813],[45.2755031,1.9978702],[45.2756345,1.9980418],[45.2758545,1.9982],[45.2762514,1.9983661],[45.2777588,1.9986664],[45.2782899,1.9987682],[45.2786976,1.9988915],[45.2792662,1.9991113],[45.279851,1.999433],[45.279964,1.9995133],[45.2801031,1.9997118],[45.2801728,1.999945],[45.2802855,2.0000549],[45.2805054,2.000272],[45.2806664,2.000457],[45.2808917,2.0006071],[45.2812878,2.0007606]]},"properties":{"natural":"coastline","source":"Bing"}},{"type":"Feature","id":"w865423527","geometry":{"type":"LineString","coordinates":[[45.2054974,1.9580873],[45.2055819,1.9580524],[45.2057724,1.9580739],[45.2058394,1.9581154],[45.205873,1.9581918],[45.2058019,1.9582227],[45.2057093,1.9581731],[45.2055256,1.9581664],[45.2054827,1.9581355],[45.2054974,1.9580873]]},"properties":{"natural":"coastline","place":"islet"}},{"type":"Feature","id":"w865423528","geometry":{"type":"LineString","coordinates":[[45.218883,1.962127],[45.2189058,1.9621029],[45.2189313,1.9620922],[45.2189165,1.9620694],[45.2189407,1.9620573],[45.2189688,1.962056],[45.2189943,1.9620694],[45.2190091,1.9620922],[45.2190118,1.9621176],[45.2190654,1.9621297],[45.2191083,1.9621645],[45.2191365,1.9621632],[45.2191579,1.962182],[45.2192196,1.9622396],[45.219229,1.9622664],[45.2192263,1.9622932],[45.2192076,1.9623133],[45.2191807,1.962316],[45.2191271,1.9622999],[45.219052,1.9622651],[45.2190292,1.9622503],[45.2189662,1.9621967],[45.2189206,1.9621686],[45.2189004,1.9621498],[45.218883,1.962127]]},"properties":{"name":"Xariim Xumaas Bar","natural":"coastline","place":"islet","wikidata":"Q34783684"}},{"type":"Feature","id":"w865722033","geometry":{"type":"LineString","coordinates":[[45.1950501,1.9591347],[45.1951522,1.9592768],[45.1954428,1.9593712],[45.1969098,1.9597206],[45.1982617,1.9598866],[45.1992869,1.9598864],[45.199827,1.95984],[45.1999999,1.9597828],[45.2007938,1.9595204],[45.2015624,1.9590952],[45.202157,1.958598],[45.2025532,1.9581097],[45.2019665,1.9574165],[45.2015633,1.9569965],[45.2012491,1.9567046],[45.2010803,1.9565343],[45.2008288,1.9563785],[45.2007489,1.956088],[45.2013905,1.9559649],[45.2017669,1.9560458],[45.2018491,1.9562763],[45.2019346,1.9565068],[45.2025244,1.9565383],[45.2030145,1.9567795],[45.203272,1.9568734],[45.2036171,1.9570561],[45.2039232,1.9575035],[45.2040737,1.957797],[45.2042835,1.9579524],[45.204412,1.9582102],[45.2029977,1.9581147],[45.2029238,1.9588184],[45.2030263,1.9592333],[45.2032757,1.9597165],[45.2035457,1.9601109],[45.2038998,1.9605309],[45.2041561,1.9606594],[45.2044124,1.9609172],[45.2046686,1.961175],[45.2062064,1.9619484],[45.2069752,1.962206],[45.2080003,1.9627216],[45.2092818,1.9629794],[45.2110757,1.9634948],[45.2115883,1.9637526],[45.2121009,1.9637524],[45.2123572,1.9637524],[45.2133823,1.9640102],[45.2138947,1.96401],[45.2144073,1.96401],[45.2146635,1.96401],[45.2154324,1.9640098],[45.2161564,1.9640071],[45.2177689,1.9640228],[45.2186354,1.9638809],[45.2190474,1.9636838],[45.2193188,1.9629484],[45.2195326,1.9627201],[45.2200451,1.9629779],[45.2203014,1.9632357],[45.2205577,1.9634935],[45.2215828,1.9637513],[45.2223517,1.9640091],[45.2228642,1.9642667],[45.2236331,1.9645245],[45.224446,1.9649854],[45.2251708,1.9652978],[45.2261582,1.9657562],[45.2268741,1.966125],[45.2272211,1.9663288],[45.2277336,1.9665866],[45.2285604,1.9670727],[45.2294497,1.9677218],[45.2302652,1.9683856],[45.2309838,1.9690136],[45.2313164,1.9693996],[45.2315229,1.9698017],[45.2316329,1.9702413],[45.2317764,1.9711473],[45.2318341,1.9713805],[45.2319065,1.9715937],[45.2321023,1.9721284],[45.2323249,1.9726512],[45.232518,1.9730452],[45.2326709,1.9733026],[45.2329847,1.9737248],[45.2332664,1.9740665]]},"properties":{"natural":"coastline"}},{"type":"Feature","id":"w865722035","geometry":{"type":"LineString","coordinates":[[45.2499927,1.9821193],[45.2502923,1.9822122],[45.2506672,1.9824153],[45.250985,1.9825533],[45.2513404,1.9826619],[45.2521196,1.9830064],[45.2525085,1.9832583],[45.2532408,1.9837274],[45.2536136,1.9839151],[45.253965,1.9840464],[45.2543324,1.9841617],[45.2547482,1.9842743],[45.2551103,1.9844137],[45.2558425,1.9848506],[45.2569717,1.9856012],[45.257602,1.9859765],[45.2583531,1.9863249],[45.2587909,1.9865152]]},"properties":{"natural":"coastline","source":"Bing"}},{"type":"Feature","id":"w874058450","geometry":{"type":"LineString","coordinates":[[45.4993492,2.1178051],[45.4993378,2.1177618],[45.4992467,2.1176046],[45.4992148,2.1175181],[45.4992216,2.117427],[45.4992649,2.1173495],[45.4993013,2.1173267],[45.4993469,2.1173176],[45.4993925,2.1173222],[45.4994289,2.1173518],[45.4994403,2.1173973],[45.4994312,2.1174475],[45.4993902,2.1175841],[45.4993993,2.1176297],[45.4994175,2.117673],[45.4995474,2.1178734]]},"properties":{"natural":"coastline"}},{"type":"Feature","id":"w897239269","geometry":{"type":"LineString","coordinates":[[45.4852514,2.1089507],[45.4855311,2.1090059],[45.485669,2.1092726],[45.4860027,2.1097611],[45.4863031,2.1098435],[45.4863987,2.1099984],[45.4865813,2.1101202],[45.4867567,2.1100124],[45.4868981,2.1102794],[45.4871774,2.1105053],[45.4874975,2.1107767],[45.4877813,2.1116185],[45.488171,2.1116659],[45.4882485,2.1115657],[45.4883806,2.1115019],[45.4886572,2.111692],[45.4889137,2.1119496],[45.4890698,2.1120206],[45.4894036,2.112201],[45.489792,2.112518],[45.4899937,2.1127892],[45.4904746,2.1131108],[45.4909643,2.1133674],[45.4914064,2.1137647],[45.4917657,2.1138528],[45.4920945,2.1138656],[45.4925175,2.1142264],[45.4930287,2.1143189],[45.4934581,2.1143261],[45.4937487,2.1146839],[45.4940756,2.1148278],[45.4943761,2.114922],[45.4946425,2.1148715],[45.4952237,2.1147234],[45.4952539,2.1149748],[45.4953051,2.1153089],[45.4954495,2.1154289],[45.4960217,2.115632],[45.4959155,2.116065],[45.4957162,2.116222],[45.495559,2.1163401],[45.4955804,2.116598],[45.4958508,2.1167227],[45.4960309,2.1167147],[45.4961551,2.1169495],[45.4964077,2.1170471],[45.4965761,2.1169861],[45.4969673,2.1171894],[45.4973709,2.1173552],[45.4978855,2.1176192],[45.4988392,2.1179175],[45.4993492,2.1178051]]},"properties":{"natural":"coastline"}},{"type":"Feature","id":"w915870212","geometry":{"type":"LineString","coordinates":[[45.2587909,1.9865152],[45.2597398,1.9869549],[45.2602789,1.9872176],[45.2606638,1.9874655],[45.2611613,1.9877886],[45.2614108,1.9880151],[45.2616723,1.9882376],[45.2618989,1.9884011],[45.2621658,1.9885391],[45.2625467,1.9887067],[45.2638918,1.9893165],[45.2655172,1.9899974],[45.266515,1.990496],[45.2669378,1.9907468]]},"properties":{"natural":"coastline","source":"Bing"}},{"type":"Feature","id":"w915870217","geometry":{"type":"LineString","coordinates":[[45.2669378,1.9907468],[45.2671748,1.9908873],[45.2679044,1.9914074],[45.2684838,1.9918684],[45.2687037,1.9920668],[45.2688432,1.9922437],[45.2689075,1.9924045],[45.2689129,1.9926056],[45.2689397,1.9927074],[45.2690068,1.9927986],[45.2690846,1.9928656],[45.269849,1.9931337],[45.2705196,1.993391],[45.271123,1.9936698],[45.2715522,1.9938815],[45.2719867,1.9940987],[45.272212,1.9942434],[45.2725768,1.9945758],[45.2729389,1.9949243],[45.2733681,1.9952299]]},"properties":{"natural":"coastline","source":"Bing"}},{"type":"Feature","id":"a1730847054","geometry":{"type":"MultiPolygon","coordinates":[[[[45.2054827,1.9581355],[45.2054974,1.9580873],[45.2055819,1.9580524],[45.2057724,1.9580739],[45.2058394,1.9581154],[45.205873,1.9581918],[45.2058019,1.9582227],[45.2057093,1.9581731],[45.2055256,1.9581664],[45.2054827,1.9581355]]]]},"properties":{"natural":"coastline","place":"islet"}},{"type":"Feature","id":"a1730847056","geometry":{"type":"MultiPolygon","coordinates":[[[[45.218883,1.962127],[45.2189058,1.9621029],[45.2189313,1.9620922],[45.2189165,1.9620694],[45.2189407,1.9620573],[45.2189688,1.962056],[45.2189943,1.9620694],[45.2190091,1.9620922],[45.2190118,1.9621176],[45.2190654,1.9621297],[45.2191083,1.9621645],[45.2191365,1.9621632],[45.2191579,1.962182],[45.2192196,1.9622396],[45.219229,1.9622664],[45.2192263,1.9622932],[45.2192076,1.9623133],[45.2191807,1.962316],[45.2191271,1.9622999],[45.219052,1.9622651],[45.2190292,1.9622503],[45.2189662,1.9621967],[45.2189206,1.9621686],[45.2189004,1.9621498],[45.218883,1.962127]]]]},"properties":{"name":"Xariim Xumaas Bar","natural":"coastline","place":"islet","wikidata":"Q34783684"}},{"type":"Feature","id":"w940336247","geometry":{"type":"LineString","coordinates":[[45.4995474,2.1178734],[45.4995996,2.1178383],[45.4997776,2.1182284],[45.5000172,2.1182965]]},"properties":{"natural":"coastline"}},{"type":"Feature","id":"w940336256","geometry":{"type":"LineString","coordinates":[[45.4505978,2.0922258],[45.4509776,2.0926234],[45.4513742,2.0930028]]},"properties":{"natural":"coastline"}},{"type":"Feature","id":"w940336257","geometry":{"type":"LineString","coordinates":[[45.4336365,2.0826084],[45.4341828,2.0829581],[45.4353728,2.0834559],[45.4359088,2.0836811],[45.4367997,2.0842701],[45.437802,2.0848813],[45.4387304,2.0853189],[45.4397657,2.0859262],[45.4401788,2.0863113],[45.441021,2.0866397],[45.4422208,2.0873808],[45.4429778,2.0877302],[45.4438829,2.0882017],[45.4445673,2.0888246],[45.4451668,2.0892749],[45.4459901,2.0900021],[45.4466534,2.0904946],[45.4471427,2.090696],[45.4477253,2.0907418],[45.4484144,2.0910772],[45.4486707,2.091335],[45.4491834,2.0915926],[45.4498335,2.0917251],[45.4505978,2.0922258]]},"properties":{"natural":"coastline"}},{"type":"Feature","id":"w940336260","geometry":{"type":"LineString","coordinates":[[45.4330531,2.0824032],[45.4336365,2.0826084]]},"properties":{"natural":"coastline"}},{"type":"Feature","id":"w940708419","geometry":{"type":"LineString","coordinates":[[45.4119353,2.0663489],[45.4125247,2.0670071],[45.4131439,2.0676265],[45.4139958,2.0682611],[45.4149512,2.0688248],[45.4156505,2.0693059],[45.4163172,2.0697823],[45.4172729,2.0702769],[45.4182081,2.07082],[45.4185208,2.0710805],[45.418625,2.0714231],[45.4191929,2.0718768],[45.4198632,2.0726685],[45.4206874,2.0734972],[45.4213404,2.0740949],[45.421619,2.0744102],[45.4220619,2.074661],[45.4227257,2.0753606],[45.4234895,2.07596],[45.4240634,2.0763871],[45.4248019,2.0768777],[45.4258576,2.0771601],[45.4272005,2.0775025],[45.4279081,2.0779332],[45.4286771,2.0784486],[45.4298789,2.079243],[45.4302081,2.0796315],[45.4304715,2.0797373],[45.4308196,2.0801526],[45.431417,2.0806587],[45.4319296,2.0810967],[45.4326592,2.0818625],[45.4330531,2.0824032]]},"properties":{"natural":"coastline"}},{"type":"Feature","id":"w943487579","geometry":{"type":"LineString","coordinates":[[45.3640849,2.0403046],[45.3643223,2.0406079],[45.3646399,2.0408652],[45.3651102,2.0412072],[45.3653667,2.0413358],[45.3656229,2.0415936],[45.3658792,2.0418512],[45.3663918,2.042109],[45.3669045,2.0423668],[45.3675449,2.0427538],[45.3678012,2.0430116],[45.3683391,2.0433925],[45.368955,2.0436554],[45.3694676,2.0439132],[45.3699801,2.0441709],[45.3712618,2.0449441],[45.3715182,2.0452019],[45.372393,2.0457226],[45.3730559,2.045975],[45.3735687,2.0462328],[45.3743375,2.0464904],[45.3752566,2.0467185],[45.375965,2.0469441],[45.3763195,2.0471537],[45.3768128,2.0471787],[45.3770979,2.0472666],[45.3779001,2.0475992],[45.3782207,2.0477418],[45.3787378,2.0480322],[45.3791149,2.0482857],[45.3794582,2.0485945],[45.3798187,2.049315],[45.3799764,2.0495832],[45.3805104,2.0500071],[45.3812017,2.0502273],[45.3815142,2.0502278],[45.3818038,2.0499909],[45.3822829,2.0498404],[45.3827955,2.0499697],[45.3829232,2.0502275],[45.383052,2.050743],[45.3843336,2.051387],[45.3851024,2.0516446],[45.3856152,2.0519024],[45.3861277,2.05216],[45.3868966,2.0524178],[45.3871529,2.0524176],[45.3874092,2.0524176],[45.3879217,2.0525469]]},"properties":{"natural":"coastline"}},{"type":"Feature","id":"w943487583","geometry":{"type":"LineString","coordinates":[[45.4080349,2.0637333],[45.4082673,2.06384],[45.4083794,2.0640564],[45.4094371,2.0645351],[45.4101772,2.0649076],[45.411143,2.0656524],[45.4117016,2.0659098],[45.4119353,2.0663489]]},"properties":{"natural":"coastline"}},{"type":"Feature","id":"w1197960236","geometry":{"type":"LineString","coordinates":[[45.3308196,2.0214258],[45.3311468,2.0215746],[45.3312628,2.0216316],[45.3312648,2.0217397],[45.3313749,2.0218438],[45.3314595,2.0218929],[45.3316856,2.0219205],[45.3318134,2.0219794],[45.3320297,2.0221366],[45.3321181,2.0221582],[45.3321712,2.0221228],[45.3322381,2.0219912],[45.3322695,2.0218517],[45.33236,2.0218183],[45.332419,2.0218635],[45.3325369,2.0218674],[45.3327673,2.0220163],[45.3330499,2.0222634],[45.3333026,2.0224752],[45.3334507,2.0226313],[45.333611,2.0228255],[45.3336898,2.0228621],[45.3337509,2.0228567],[45.3338352,2.0228105],[45.3338868,2.0228146],[45.3340063,2.0228825],[45.3341055,2.0229097],[45.3341775,2.022911],[45.334255,2.022873],[45.335122,2.0222682],[45.3352496,2.0221982],[45.3353874,2.0221474],[45.3355523,2.0221147],[45.3357363,2.0221113],[45.3359407,2.0221485],[45.3414694,2.0243889],[45.3415298,2.0243922],[45.3415818,2.0244004],[45.3416264,2.0244243],[45.3416608,2.0244613],[45.3416813,2.0245075],[45.3416858,2.0245578],[45.3416737,2.0246069],[45.3416485,2.024647],[45.3416124,2.0246776],[45.3415686,2.0246957],[45.3415214,2.0246997],[45.3414752,2.0246891],[45.3414518,2.024669],[45.341432,2.0246398],[45.3414215,2.0245998],[45.3403387,2.0241555],[45.3403088,2.0242242],[45.3402979,2.0242494],[45.3400788,2.0247533],[45.3400429,2.0247957],[45.3400118,2.0248039],[45.3399729,2.0247936],[45.3398803,2.0250367],[45.3355895,2.0232933],[45.3353195,2.0236499],[45.3351924,2.0238176],[45.335109,2.0239277],[45.3349675,2.0241146],[45.3347332,2.0244239],[45.3372645,2.0264085],[45.3370802,2.0266409],[45.3371028,2.0266564],[45.3371176,2.0266805],[45.3371137,2.0267063],[45.3368696,2.0270277]]},"properties":{"natural":"coastline","source":"Bing"}}]}