{"type": "FeatureCollection", "features": [{"type": "Feature", "id": "a3440303", "geometry": {"type": "MultiPolygon", "coordinates": [[[[45.342174, 2.0383466], [45.3422719, 2.038134], [45.3423913, 2.0375757], [45.3425839, 2.0364458], [45.3434401, 2.0326949], [45.3434731, 2.0325561], [45.3435046, 2.0324279], [45.3436155, 2.0319759], [45.3436121, 2.0319595], [45.3436419, 2.0318781], [45.3436467, 2.031882], [45.3436517, 2.031879], [45.3436633, 2.0318877], [45.343671, 2.0318896], [45.3436772, 2.0319027], [45.3436627, 2.031925], [45.343666, 2.0319458], [45.3436817, 2.031955], [45.3436879, 2.0319488], [45.3436986, 2.0319556], [45.3437109, 2.0319554], [45.3437138, 2.0319519], [45.3437289, 2.0319495], [45.343743, 2.0319632], [45.3437526, 2.0319676], [45.3437681, 2.0319732], [45.343786, 2.0319765], [45.3437992, 2.0319882], [45.3437985, 2.0319949], [45.3438017, 2.0320067], [45.3438344, 2.0320476], [45.343873, 2.0320743], [45.3441243, 2.0321663], [45.3440906, 2.0322656], [45.3439773, 2.0323689], [45.3438806, 2.0325498], [45.3439398, 2.0327757], [45.3440622, 2.0327886], [45.3441161, 2.0328122], [45.3441343, 2.0328774], [45.3440958, 2.032926], [45.3440978, 2.0329586], [45.3440167, 2.033063], [45.3439686, 2.0330989], [45.3438709, 2.0332276], [45.3438117, 2.0334213], [45.3438132, 2.0335841], [45.3438317, 2.0336953], [45.3438726, 2.0338271], [45.3439549, 2.0339373], [45.3442305, 2.034234], [45.3447406, 2.0346557], [45.3458285, 2.0349586], [45.3499278, 2.0356426], [45.3500651, 2.0356662], [45.3512494, 2.0356912], [45.3517176, 2.0357671], [45.3521105, 2.0357354], [45.3521116, 2.0358924], [45.3521113, 2.0359003], [45.3521034, 2.0359539], [45.3521029, 2.0359608], [45.3521029, 2.0359707], [45.3521019, 2.0360112], [45.3521008, 2.0360915], [45.3521004, 2.0361191], [45.3521003, 2.0361307], [45.3521075, 2.0370739], [45.3520423, 2.0387466], [45.3520184, 2.0390496], [45.3519444, 2.0392371], [45.3518893, 2.0393353], [45.3516937, 2.0395808], [45.3515599, 2.0396952], [45.3512513, 2.0399275], [45.3508964, 2.0401767], [45.3506802, 2.0403286], [45.3505669, 2.0404163], [45.3504861, 2.0404826], [45.3503141, 2.0406125], [45.3501726, 2.0407815], [45.3494526, 2.0405339], [45.3468765, 2.0397689], [45.3458625, 2.0394477], [45.3456547, 2.0393891], [45.3451266, 2.0392418], [45.3441975, 2.0389603], [45.3428897, 2.0385474], [45.342174, 2.0383466]]]]}, "properties": {"admin_level": "6", "boundary": "administrative", "name": "Shangaani \u0634\u0627\u0646\u0643\u0627\u0646\u064a", "name:ar": "\u0634\u0627\u0646\u0643\u0627\u0646\u064a", "name:en": "Shangani District", "name:fr": "Shangani", "source": "UN OCHA COD", "wikidata": "Q7488369", "wikipedia": "en:Shangani District"}}, {"type": "Feature", "id": "a32397597", "geometry": {"type": "MultiPolygon", "coordinates": [[[[45.3340841, 2.0334818], [45.3340913, 2.0323519], [45.3341605, 2.031372], [45.3342211, 2.0310852], [45.3343869, 2.0305707], [45.3346998, 2.0299856], [45.3351483, 2.0290546], [45.336503, 2.0296276], [45.3365244, 2.0295479], [45.3361738, 2.0291276], [45.3356536, 2.0285191], [45.3360306, 2.0280333], [45.3368696, 2.0270277], [45.3369464, 2.0273723], [45.3370739, 2.0276206], [45.3371213, 2.0276173], [45.3371965, 2.0276467], [45.3373485, 2.0278166], [45.3374799, 2.0279041], [45.3376063, 2.0279454], [45.3376693, 2.0279333], [45.3377216, 2.0278496], [45.3378371, 2.0278599], [45.3379027, 2.0279152], [45.3379597, 2.0280446], [45.3380577, 2.0280987], [45.3381273, 2.0282074], [45.3382574, 2.0282865], [45.3383171, 2.0283964], [45.3384472, 2.0284359], [45.3384941, 2.0285304], [45.3385947, 2.0285519], [45.3386959, 2.0285284], [45.3387328, 2.0284641], [45.3387982, 2.0284315], [45.3389078, 2.0284975], [45.3388839, 2.0286281], [45.3389064, 2.0287461], [45.3390005, 2.0287531], [45.3390652, 2.028798], [45.339082, 2.0288851], [45.339134, 2.0290676], [45.3391973, 2.0291056], [45.3392942, 2.0290466], [45.339349, 2.0290648], [45.339498, 2.0290255], [45.3395795, 2.0290873], [45.3396835, 2.029062], [45.3398212, 2.029246], [45.3398338, 2.0293232], [45.3398999, 2.029364], [45.3399814, 2.0293569], [45.3402567, 2.0294834], [45.3403466, 2.0295789], [45.3404675, 2.0296027], [45.3405714, 2.0295999], [45.3407035, 2.0296659], [45.340772, 2.0297366], [45.34052, 2.0299927], [45.3404664, 2.0303461], [45.3405628, 2.0304041], [45.3405699, 2.0304344], [45.3407961, 2.0305703], [45.3409865, 2.0306654], [45.341059, 2.0307124], [45.3410751, 2.0308303], [45.3412561, 2.030837], [45.3413822, 2.0309214], [45.3413634, 2.0310273], [45.3412306, 2.0311211], [45.3412414, 2.0312176], [45.3413352, 2.0312109], [45.3414157, 2.0312873], [45.3416008, 2.0312954], [45.3417081, 2.0312176], [45.3418516, 2.0312042], [45.3422807, 2.031164], [45.3424068, 2.0310541], [45.3426227, 2.0310488], [45.3427099, 2.0309442], [45.342793, 2.0310394], [45.3427394, 2.0312659], [45.343013, 2.0313275], [45.3430998, 2.0312595], [45.3432041, 2.0312042], [45.3432168, 2.0311813], [45.3432423, 2.0310675], [45.3431658, 2.0310407], [45.3431162, 2.0309938], [45.3429539, 2.030892], [45.3429553, 2.0308491], [45.343025, 2.030837], [45.3431015, 2.0308209], [45.34319, 2.0308156], [45.3432651, 2.0308598], [45.3432817, 2.0309549], [45.3433513, 2.0310621], [45.3433201, 2.0312002], [45.343422, 2.0312391], [45.3435381, 2.0311674], [45.3436017, 2.0312508], [45.3436325, 2.0313624], [45.3437229, 2.031364], [45.3436942, 2.0314776], [45.3434864, 2.0316117], [45.3433938, 2.0315956], [45.3433712, 2.0315308], [45.3433135, 2.0316301], [45.3432664, 2.0317417], [45.3432416, 2.0318791], [45.343314, 2.031926], [45.3433556, 2.0319112], [45.3434274, 2.0319266], [45.3435273, 2.031993], [45.3435611, 2.031939], [45.3436121, 2.0319595], [45.3436155, 2.0319759], [45.3435046, 2.0324279], [45.3434731, 2.0325561], [45.3434401, 2.0326949], [45.3425839, 2.0364458], [45.3423913, 2.0375757], [45.3422719, 2.038134], [45.342174, 2.0383466], [45.3421269, 2.0387025], [45.3418902, 2.0388577], [45.3415602, 2.0391376], [45.3411308, 2.0390117], [45.3408402, 2.038917], [45.3379426, 2.0373106], [45.3379413, 2.0371386], [45.3377896, 2.0370833], [45.3375055, 2.0369632], [45.3367489, 2.0365961], [45.3364157, 2.0364403], [45.3361009, 2.0363589], [45.335647, 2.0362745], [45.3351435, 2.0362325], [45.3341397, 2.0362614], [45.3341442, 2.0361894], [45.3340841, 2.0334818]]]]}, "properties": {"admin_level": "6", "alt_name": "Xamar Weyne", "boundary": "administrative", "name": "Hamar Weyne \u062d\u064a \u062d\u0645\u0631\u0648\u064a\u0646", "name:ar": "\u062d\u064a \u062d\u0645\u0631\u0648\u064a\u0646", "name:en": "Hamar Weyne District", "name:so": "Xamarweyne", "wikidata": "Q5644086", "wikipedia": "en:Hamar Weyne District"}}]}